CZ-2C R/B               
1 54039U 22132E   25337.78699275  .00048508  00000+0  74079-3 0  9998
2 54039  97.2940 333.8200 0023880  86.1498 274.2486 15.53949856175449
GSLV R/B                
1 54149U 22138AN  25337.69240600  .00004755  00000+0  41879-3 0  9998
2 54149  87.3836 198.5027 0023262 135.4628 224.8478 14.96053865169576
XRISM                   
1 57800U 23137A   25336.85448533  .00006730  00000+0  39603-3 0  9994
2 57800  31.0000 189.3635 0007644 145.2605 214.8533 15.10197227123136
ACS3                    
1 59588U 24077B   25337.72463905  .00011247  00000+0  97667-2 0  9992
2 59588  97.2769 295.3421 0077468 357.1372   2.9335 13.84786160 80894
