CCSDS_OMM_VERS = 2.0
CREATION_DATE  = 
ORIGINATOR     = 

OBJECT_NAME    = CZ-2C R/B
OBJECT_ID      = 2022-132E
CENTER_NAME    = EARTH
REF_FRAME      = TEME
TIME_SYSTEM    = UTC
MEAN_ELEMENT_THEORY = SGP/SGP4

EPOCH          = 2025-12-03T18:53:16.173600
MEAN_MOTION    = 15.53949856
ECCENTRICITY   = .002388
INCLINATION    = 97.2940
RA_OF_ASC_NODE = 333.8200
ARG_OF_PERICENTER = 86.1498
MEAN_ANOMALY   = 274.2486

EPHEMERIS_TYPE = 0
CLASSIFICATION_TYPE = U
NORAD_CAT_ID   = 54039
ELEMENT_SET_NO = 999
REV_AT_EPOCH   = 17544
BSTAR          = .74079E-3
MEAN_MOTION_DOT = .48508E-3
MEAN_MOTION_DDOT = 0

CCSDS_OMM_VERS = 2.0
CREATION_DATE  = 
ORIGINATOR     = 

OBJECT_NAME    = GSLV R/B
OBJECT_ID      = 2022-138AN
CENTER_NAME    = EARTH
REF_FRAME      = TEME
TIME_SYSTEM    = UTC
MEAN_ELEMENT_THEORY = SGP/SGP4

EPOCH          = 2025-12-03T16:37:03.878400
MEAN_MOTION    = 14.96053865
ECCENTRICITY   = .0023262
INCLINATION    = 87.3836
RA_OF_ASC_NODE = 198.5027
ARG_OF_PERICENTER = 135.4628
MEAN_ANOMALY   = 224.8478

EPHEMERIS_TYPE = 0
CLASSIFICATION_TYPE = U
NORAD_CAT_ID   = 54149
ELEMENT_SET_NO = 999
REV_AT_EPOCH   = 16957
BSTAR          = .41879E-3
MEAN_MOTION_DOT = .4755E-4
MEAN_MOTION_DDOT = 0

CCSDS_OMM_VERS = 2.0
CREATION_DATE  = 
ORIGINATOR     = 

OBJECT_NAME    = XRISM
OBJECT_ID      = 2023-137A
CENTER_NAME    = EARTH
REF_FRAME      = TEME
TIME_SYSTEM    = UTC
MEAN_ELEMENT_THEORY = SGP/SGP4

EPOCH          = 2025-12-02T20:30:27.532512
MEAN_MOTION    = 15.10197227
ECCENTRICITY   = .00076447
INCLINATION    = 31.0000
RA_OF_ASC_NODE = 189.3635
ARG_OF_PERICENTER = 145.2605
MEAN_ANOMALY   = 214.8533

EPHEMERIS_TYPE = 0
CLASSIFICATION_TYPE = U
NORAD_CAT_ID   = 57800
ELEMENT_SET_NO = 999
REV_AT_EPOCH   = 12313
BSTAR          = .39603388E-3
MEAN_MOTION_DOT = .673E-4
MEAN_MOTION_DDOT = 0

CCSDS_OMM_VERS = 2.0
CREATION_DATE  = 
ORIGINATOR     = 

OBJECT_NAME    = ACS3
OBJECT_ID      = 2024-077B
CENTER_NAME    = EARTH
REF_FRAME      = TEME
TIME_SYSTEM    = UTC
MEAN_ELEMENT_THEORY = SGP/SGP4

EPOCH          = 2025-12-03T17:23:28.813920
MEAN_MOTION    = 13.84786160
ECCENTRICITY   = .0077468
INCLINATION    = 97.2769
RA_OF_ASC_NODE = 295.3421
ARG_OF_PERICENTER = 357.1372
MEAN_ANOMALY   = 2.9335

EPHEMERIS_TYPE = 0
CLASSIFICATION_TYPE = U
NORAD_CAT_ID   = 59588
ELEMENT_SET_NO = 999
REV_AT_EPOCH   = 8089
BSTAR          = .97667E-2
MEAN_MOTION_DOT = .11247E-3
MEAN_MOTION_DDOT = 0

